MALLIGYONG-1            
1 58400U 23179A   24065.16805991  .00006774  00000+0  30576-3 0  9992
2 58400  97.4189 313.5684 0007777 266.7781  93.2565 15.21285657 15909
